{
  "links" : {
    "next" : "https://api.nasa.gov/neo/rest/v1/feed?start_date=2010-03-16&end_date=2010-03-16&detailed=true&api_key=t0TVs3DtDT2H8Oy2Zy8m2eVrNsAVKAexjcZXUckd",
    "prev" : "https://api.nasa.gov/neo/rest/v1/feed?start_date=2010-03-14&end_date=2010-03-14&detailed=true&api_key=t0TVs3DtDT2H8Oy2Zy8m2eVrNsAVKAexjcZXUckd",
    "self" : "https://api.nasa.gov/neo/rest/v1/feed?start_date=2010-03-15&end_date=2010-03-15&detailed=true&api_key=t0TVs3DtDT2H8Oy2Zy8m2eVrNsAVKAexjcZXUckd"
  },
  "element_count" : 8,
  "near_earth_objects" : {
    "2010-03-15" : [ {
      "links" : {
        "self" : "https://api.nasa.gov/neo/rest/v1/neo/3771794?api_key=t0TVs3DtDT2H8Oy2Zy8m2eVrNsAVKAexjcZXUckd"
      },
      "neo_reference_id" : "3771794",
      "name" : "(2017 FK63)",
      "nasa_jpl_url" : "http://ssd.jpl.nasa.gov/sbdb.cgi?sstr=3771794",
      "absolute_magnitude_h" : 24.858,
      "estimated_diameter" : {
        "kilometers" : {
          "estimated_diameter_min" : 0.0283762484,
          "estimated_diameter_max" : 0.0634512203
        },
        "meters" : {
          "estimated_diameter_min" : 28.3762483607,
          "estimated_diameter_max" : 63.451220281
        },
        "miles" : {
          "estimated_diameter_min" : 0.0176321778,
          "estimated_diameter_max" : 0.0394267482
        },
        "feet" : {
          "estimated_diameter_min" : 93.0979306719,
          "estimated_diameter_max" : 208.1733015469
        }
      },
      "is_potentially_hazardous_asteroid" : false,
      "close_approach_data" : [ {
        "close_approach_date" : "2010-03-15",
        "epoch_date_close_approach" : 1268636400000,
        "relative_velocity" : {
          "kilometers_per_second" : "10.3991299278",
          "kilometers_per_hour" : "37436.8677400638",
          "miles_per_hour" : "23261.8137354858"
        },
        "miss_distance" : {
          "astronomical" : "0.3228808764",
          "lunar" : "125.6006546021",
          "kilometers" : "48302292",
          "miles" : "30013652"
        },
        "orbiting_body" : "Earth"
      } ],
      "orbital_data" : {
        "orbit_id" : "7",
        "orbit_determination_date" : "2017-04-22 06:18:10",
        "orbit_uncertainty" : "7",
        "minimum_orbit_intersection" : ".0500421",
        "jupiter_tisserand_invariant" : "5.093",
        "epoch_osculation" : "2458000.5",
        "eccentricity" : ".1690278906035153",
        "semi_major_axis" : "1.259373724108415",
        "inclination" : "7.660929723412476",
        "ascending_node_longitude" : "185.989624045592",
        "orbital_period" : "516.2147012303747",
        "perihelion_distance" : "1.046504440040876",
        "perihelion_argument" : "358.956722923798",
        "aphelion_distance" : "1.472243008175953",
        "perihelion_time" : "2457840.686371758083",
        "mean_anomaly" : "111.4515065726778",
        "mean_motion" : ".6973842456287201",
        "equinox" : "J2000"
      }
    }, {
      "links" : {
        "self" : "https://api.nasa.gov/neo/rest/v1/neo/3773653?api_key=t0TVs3DtDT2H8Oy2Zy8m2eVrNsAVKAexjcZXUckd"
      },
      "neo_reference_id" : "3773653",
      "name" : "(2017 FL128)",
      "nasa_jpl_url" : "http://ssd.jpl.nasa.gov/sbdb.cgi?sstr=3773653",
      "absolute_magnitude_h" : 22.204,
      "estimated_diameter" : {
        "kilometers" : {
          "estimated_diameter_min" : 0.0963285397,
          "estimated_diameter_max" : 0.2153971629
        },
        "meters" : {
          "estimated_diameter_min" : 96.3285396982,
          "estimated_diameter_max" : 215.3971629384
        },
        "miles" : {
          "estimated_diameter_min" : 0.059855761,
          "estimated_diameter_max" : 0.1338415505
        },
        "feet" : {
          "estimated_diameter_min" : 316.0385261833,
          "estimated_diameter_max" : 706.6836280547
        }
      },
      "is_potentially_hazardous_asteroid" : false,
      "close_approach_data" : [ {
        "close_approach_date" : "2010-03-15",
        "epoch_date_close_approach" : 1268636400000,
        "relative_velocity" : {
          "kilometers_per_second" : "12.0441774246",
          "kilometers_per_hour" : "43359.0387284772",
          "miles_per_hour" : "26941.6204810363"
        },
        "miss_distance" : {
          "astronomical" : "0.1106837011",
          "lunar" : "43.0559616089",
          "kilometers" : "16558046",
          "miles" : "10288693"
        },
        "orbiting_body" : "Earth"
      } ],
      "orbital_data" : {
        "orbit_id" : "7",
        "orbit_determination_date" : "2017-05-22 06:19:16",
        "orbit_uncertainty" : "3",
        "minimum_orbit_intersection" : ".108564",
        "jupiter_tisserand_invariant" : "6.466",
        "epoch_osculation" : "2458000.5",
        "eccentricity" : ".3175085943356674",
        "semi_major_axis" : ".9111543560895662",
        "inclination" : "17.90074249259128",
        "ascending_node_longitude" : "8.98802420261806",
        "orbital_period" : "317.6774299570085",
        "perihelion_distance" : ".6218550172647479",
        "perihelion_argument" : "28.41397553474924",
        "aphelion_distance" : "1.200453694914384",
        "perihelion_time" : "2458037.556864150943",
        "mean_anomaly" : "318.0062357714711",
        "mean_motion" : "1.133224982488429",
        "equinox" : "J2000"
      }
    } ]
  }
}